CCSDS_OMM_VERS = 2.0
CREATION_DATE  = 
ORIGINATOR     = 

OBJECT_NAME    = H-2A R/B
OBJECT_ID      = 2012-025E
CENTER_NAME    = EARTH
REF_FRAME      = TEME
TIME_SYSTEM    = UTC
MEAN_ELEMENT_THEORY = SGP/SGP4

EPOCH          = 2025-11-13T04:14:21.043680
MEAN_MOTION    = 14.94146516
ECCENTRICITY   = .0044981
INCLINATION    = 98.4550
RA_OF_ASC_NODE = 270.1422
ARG_OF_PERICENTER = 335.9339
MEAN_ANOMALY   = 23.9777

EPHEMERIS_TYPE = 0
CLASSIFICATION_TYPE = U
NORAD_CAT_ID   = 38341
ELEMENT_SET_NO = 999
REV_AT_EPOCH   = 73081
BSTAR          = .79479221E-3
MEAN_MOTION_DOT = .8613E-4
MEAN_MOTION_DDOT = 0

CCSDS_OMM_VERS = 2.0
CREATION_DATE  = 
ORIGINATOR     = 

OBJECT_NAME    = SHIJIAN-16 (SJ-16)
OBJECT_ID      = 2013-057A
CENTER_NAME    = EARTH
REF_FRAME      = TEME
TIME_SYSTEM    = UTC
MEAN_ELEMENT_THEORY = SGP/SGP4

EPOCH          = 2025-11-13T07:09:11.808576
MEAN_MOTION    = 14.91847961
ECCENTRICITY   = .00164216
INCLINATION    = 74.9744
RA_OF_ASC_NODE = 45.3538
ARG_OF_PERICENTER = 31.1972
MEAN_ANOMALY   = 329.0186

EPHEMERIS_TYPE = 0
CLASSIFICATION_TYPE = U
NORAD_CAT_ID   = 39358
ELEMENT_SET_NO = 999
REV_AT_EPOCH   = 65414
BSTAR          = .59032834E-3
MEAN_MOTION_DOT = .5953E-4
MEAN_MOTION_DDOT = 0

CCSDS_OMM_VERS = 2.0
CREATION_DATE  = 
ORIGINATOR     = 

OBJECT_NAME    = SL-4 R/B
OBJECT_ID      = 2014-021B
CENTER_NAME    = EARTH
REF_FRAME      = TEME
TIME_SYSTEM    = UTC
MEAN_ELEMENT_THEORY = SGP/SGP4

EPOCH          = 2025-11-13T00:22:08.781024
MEAN_MOTION    = 15.35601863
ECCENTRICITY   = .01041232
INCLINATION    = 51.6061
RA_OF_ASC_NODE = 184.9388
ARG_OF_PERICENTER = 39.2854
MEAN_ANOMALY   = 321.5625

EPHEMERIS_TYPE = 0
CLASSIFICATION_TYPE = U
NORAD_CAT_ID   = 39679
ELEMENT_SET_NO = 999
REV_AT_EPOCH   = 63832
BSTAR          = .60047641E-3
MEAN_MOTION_DOT = .24926E-3
MEAN_MOTION_DDOT = 0

CCSDS_OMM_VERS = 2.0
CREATION_DATE  = 
ORIGINATOR     = 

OBJECT_NAME    = ALOS-2
OBJECT_ID      = 2014-029A
CENTER_NAME    = EARTH
REF_FRAME      = TEME
TIME_SYSTEM    = UTC
MEAN_ELEMENT_THEORY = SGP/SGP4

EPOCH          = 2025-11-13T06:07:21.035712
MEAN_MOTION    = 14.79472899
ECCENTRICITY   = .00013852
INCLINATION    = 97.9230
RA_OF_ASC_NODE = 52.5199
ARG_OF_PERICENTER = 99.6003
MEAN_ANOMALY   = 260.5365

EPHEMERIS_TYPE = 0
CLASSIFICATION_TYPE = U
NORAD_CAT_ID   = 39766
ELEMENT_SET_NO = 999
REV_AT_EPOCH   = 61965
BSTAR          = .91611797E-3
MEAN_MOTION_DOT = .6797E-4
MEAN_MOTION_DDOT = 0

CCSDS_OMM_VERS = 2.0
CREATION_DATE  = 
ORIGINATOR     = 

OBJECT_NAME    = YAOGAN-29
OBJECT_ID      = 2015-069A
CENTER_NAME    = EARTH
REF_FRAME      = TEME
TIME_SYSTEM    = UTC
MEAN_ELEMENT_THEORY = SGP/SGP4

EPOCH          = 2025-11-13T07:57:27.806976
MEAN_MOTION    = 14.82835260
ECCENTRICITY   = .00021292
INCLINATION    = 98.0250
RA_OF_ASC_NODE = 340.4044
ARG_OF_PERICENTER = 46.8256
MEAN_ANOMALY   = 313.3134

EPHEMERIS_TYPE = 0
CLASSIFICATION_TYPE = U
NORAD_CAT_ID   = 41038
ELEMENT_SET_NO = 999
REV_AT_EPOCH   = 53863
BSTAR          = .15765309E-3
MEAN_MOTION_DOT = .1222E-4
MEAN_MOTION_DDOT = 0

CCSDS_OMM_VERS = 2.0
CREATION_DATE  = 
ORIGINATOR     = 

OBJECT_NAME    = ASTRO-H (HITOMI)
OBJECT_ID      = 2016-012A
CENTER_NAME    = EARTH
REF_FRAME      = TEME
TIME_SYSTEM    = UTC
MEAN_ELEMENT_THEORY = SGP/SGP4

EPOCH          = 2025-11-13T06:13:08.015520
MEAN_MOTION    = 15.09093023
ECCENTRICITY   = .00098736
INCLINATION    = 31.0011
RA_OF_ASC_NODE = 27.3841
ARG_OF_PERICENTER = 241.1309
MEAN_ANOMALY   = 118.8338

EPHEMERIS_TYPE = 0
CLASSIFICATION_TYPE = U
NORAD_CAT_ID   = 41337
ELEMENT_SET_NO = 999
REV_AT_EPOCH   = 53462
BSTAR          = .45980358E-3
MEAN_MOTION_DOT = .7571E-4
MEAN_MOTION_DDOT = 0

CCSDS_OMM_VERS = 2.0
CREATION_DATE  = 
ORIGINATOR     = 

OBJECT_NAME    = HXMT (HUIYAN)
OBJECT_ID      = 2017-034A
CENTER_NAME    = EARTH
REF_FRAME      = TEME
TIME_SYSTEM    = UTC
MEAN_ELEMENT_THEORY = SGP/SGP4

EPOCH          = 2025-11-13T06:35:15.516096
MEAN_MOTION    = 15.15794181
ECCENTRICITY   = .00337205
INCLINATION    = 43.0148
RA_OF_ASC_NODE = 303.0877
ARG_OF_PERICENTER = 220.9707
MEAN_ANOMALY   = 138.8606

EPHEMERIS_TYPE = 0
CLASSIFICATION_TYPE = U
NORAD_CAT_ID   = 42758
ELEMENT_SET_NO = 999
REV_AT_EPOCH   = 46486
BSTAR          = .85929358E-3
MEAN_MOTION_DOT = .16748E-3
MEAN_MOTION_DDOT = 0

CCSDS_OMM_VERS = 2.0
CREATION_DATE  = 
ORIGINATOR     = 

OBJECT_NAME    = CZ-2C R/B
OBJECT_ID      = 2018-054D
CENTER_NAME    = EARTH
REF_FRAME      = TEME
TIME_SYSTEM    = UTC
MEAN_ELEMENT_THEORY = SGP/SGP4

EPOCH          = 2025-11-13T05:52:25.445280
MEAN_MOTION    = 15.67743683
ECCENTRICITY   = .00240429
INCLINATION    = 35.1368
RA_OF_ASC_NODE = 19.9259
ARG_OF_PERICENTER = 215.8732
MEAN_ANOMALY   = 144.0385

EPHEMERIS_TYPE = 0
CLASSIFICATION_TYPE = U
NORAD_CAT_ID   = 43521
ELEMENT_SET_NO = 999
REV_AT_EPOCH   = 41041
BSTAR          = .10354794E-2
MEAN_MOTION_DOT = .121198E-2
MEAN_MOTION_DDOT = 0

CCSDS_OMM_VERS = 2.0
CREATION_DATE  = 
ORIGINATOR     = 

OBJECT_NAME    = SAOCOM 1A
OBJECT_ID      = 2018-076A
CENTER_NAME    = EARTH
REF_FRAME      = TEME
TIME_SYSTEM    = UTC
MEAN_ELEMENT_THEORY = SGP/SGP4

EPOCH          = 2025-11-13T07:18:57.405312
MEAN_MOTION    = 14.82167424
ECCENTRICITY   = .00013533
INCLINATION    = 97.8864
RA_OF_ASC_NODE = 142.1539
ARG_OF_PERICENTER = 90.5976
MEAN_ANOMALY   = 269.5392

EPHEMERIS_TYPE = 0
CLASSIFICATION_TYPE = U
NORAD_CAT_ID   = 43641
ELEMENT_SET_NO = 999
REV_AT_EPOCH   = 38412
BSTAR          = .19568099E-3
MEAN_MOTION_DOT = .1506E-4
MEAN_MOTION_DDOT = 0

CCSDS_OMM_VERS = 2.0
CREATION_DATE  = 
ORIGINATOR     = 

OBJECT_NAME    = H-2A R/B
OBJECT_ID      = 2018-084L
CENTER_NAME    = EARTH
REF_FRAME      = TEME
TIME_SYSTEM    = UTC
MEAN_ELEMENT_THEORY = SGP/SGP4

EPOCH          = 2025-11-13T06:13:44.794272
MEAN_MOTION    = 15.35973202
ECCENTRICITY   = .0029163
INCLINATION    = 98.8802
RA_OF_ASC_NODE = 145.2630
ARG_OF_PERICENTER = 66.4108
MEAN_ANOMALY   = 294.0189

EPHEMERIS_TYPE = 0
CLASSIFICATION_TYPE = U
NORAD_CAT_ID   = 43682
ELEMENT_SET_NO = 999
REV_AT_EPOCH   = 38787
BSTAR          = .11113322E-2
MEAN_MOTION_DOT = .39528E-3
MEAN_MOTION_DDOT = 0

CCSDS_OMM_VERS = 2.0
CREATION_DATE  = 
ORIGINATOR     = 

OBJECT_NAME    = SAOCOM 1B
OBJECT_ID      = 2020-059A
CENTER_NAME    = EARTH
REF_FRAME      = TEME
TIME_SYSTEM    = UTC
MEAN_ELEMENT_THEORY = SGP/SGP4

EPOCH          = 2025-11-13T06:26:45.191040
MEAN_MOTION    = 14.82174632
ECCENTRICITY   = .00014797
INCLINATION    = 97.8853
RA_OF_ASC_NODE = 141.2204
ARG_OF_PERICENTER = 86.5522
MEAN_ANOMALY   = 273.5861

EPHEMERIS_TYPE = 0
CLASSIFICATION_TYPE = U
NORAD_CAT_ID   = 46265
ELEMENT_SET_NO = 999
REV_AT_EPOCH   = 28150
BSTAR          = .19264667E-3
MEAN_MOTION_DOT = .1482E-4
MEAN_MOTION_DDOT = 0

CCSDS_OMM_VERS = 2.0
CREATION_DATE  = 
ORIGINATOR     = 

OBJECT_NAME    = CSS (TIANHE)
OBJECT_ID      = 2021-035A
CENTER_NAME    = EARTH
REF_FRAME      = TEME
TIME_SYSTEM    = UTC
MEAN_ELEMENT_THEORY = SGP/SGP4

EPOCH          = 2025-11-13T02:51:05.294592
MEAN_MOTION    = 15.61083744
ECCENTRICITY   = .00040558
INCLINATION    = 41.4653
RA_OF_ASC_NODE = 196.4910
ARG_OF_PERICENTER = 16.3681
MEAN_ANOMALY   = 343.7288

EPHEMERIS_TYPE = 0
CLASSIFICATION_TYPE = U
NORAD_CAT_ID   = 48274
ELEMENT_SET_NO = 999
REV_AT_EPOCH   = 25940
BSTAR          = .51888494E-3
MEAN_MOTION_DOT = .44921E-3
MEAN_MOTION_DDOT = 0

