H-2A R/B                
1 38341U 12025E   25317.17663245  .00008613  00000+0  79479-3 0  9997
2 38341  98.4550 270.1422 0044981 335.9339  23.9777 14.94146516730816
SHIJIAN-16 (SJ-16)      
1 39358U 13057A   25317.29805334  .00005953  00000+0  59033-3 0  9990
2 39358  74.9744  45.3538 0016421  31.1972 329.0186 14.91847961654149
SL-4 R/B                
1 39679U 14021B   25317.01537941  .00024926  00000+0  60048-3 0  9993
2 39679  51.6061 184.9388 0104123  39.2854 321.5625 15.35601863638322
ALOS-2                  
1 39766U 14029A   25317.25510458  .00006797  00000+0  91612-3 0  9995
2 39766  97.9230  52.5199 0001385  99.6003 260.5365 14.79472899619652
YAOGAN-29               
1 41038U 15069A   25317.33157184  .00001222  00000+0  15765-3 0  9990
2 41038  98.0250 340.4044 0002129  46.8256 313.3134 14.82835260538638
ASTRO-H (HITOMI)        
1 41337U 16012A   25317.25912055  .00007571  00000+0  45980-3 0  9993
2 41337  31.0011  27.3841 0009873 241.1309 118.8338 15.09093023534622
HXMT (HUIYAN)           
1 42758U 17034A   25317.27448514  .00016748  00000+0  85929-3 0  9995
2 42758  43.0148 303.0877 0033720 220.9707 138.8606 15.15794181464860
CZ-2C R/B               
1 43521U 18054D   25317.24473895  .00121198  00000+0  10355-2 0  9990
2 43521  35.1368  19.9259 0024042 215.8732 144.0385 15.67743683410413
SAOCOM 1A               
1 43641U 18076A   25317.30483108  .00001506  00000+0  19568-3 0  9998
2 43641  97.8864 142.1539 0001353  90.5976 269.5392 14.82167424384128
H-2A R/B                
1 43682U 18084L   25317.25954623  .00039528  00000+0  11113-2 0  9993
2 43682  98.8802 145.2630 0029163  66.4108 294.0189 15.35973202387870
SAOCOM 1B               
1 46265U 20059A   25317.26857860  .00001482  00000+0  19265-3 0  9999
2 46265  97.8853 141.2204 0001479  86.5522 273.5861 14.82174632281504
CSS (TIANHE)            
1 48274U 21035A   25317.11881128  .00044921  00000+0  51888-3 0  9996
2 48274  41.4653 196.4910 0004055  16.3681 343.7288 15.61083744259403
